start=new Date('2023-05-19T00:00:00.000Z').valueOf();
sats=[{"INCLINATION":"53.2176","ELEMENT_SET_NO":"999","TIME_SYSTEM":"UTC","RCS_SIZE":"LARGE","SEMIMAJOR_AXIS":"6917.889","OBJECT_TYPE":"PAYLOAD","OBJECT_NAME":"STARLINK-3966","MEAN_MOTION_DOT":"-0.00000137","OBJECT_ID":"2022-051V","MEAN_ANOMALY":"266.3991","REV_AT_EPOCH":"5656","ECCENTRICITY":"0.00011730","COUNTRY_CODE":"US","MEAN_MOTION":"15.08837086","FILE":"3911388","EPOCH":"2023-05-18T17:30:39.038400","NORAD_CAT_ID":"52552","MEAN_MOTION_DDOT":"0.0000000000000","CLASSIFICATION_TYPE":"U","REF_FRAME":"TEME","BSTAR":"0.00000950030000","CENTER_NAME":"EARTH","DECAY_DATE":null,"PERIAPSIS":"538.943","RA_OF_ASC_NODE":"54.8416","PERIOD":"95.438","EPHEMERIS_TYPE":"0","SITE":"AFWTR","TLE_LINE1":"1 52552U 22051V   23138.72961850 -.00000137  00000-0  95003-5 0  9998","TLE_LINE2":"2 52552  53.2176  54.8416 0001173  93.7136 266.3991 15.08837086 56568","GP_ID":"232116045","MEAN_ELEMENT_THEORY":"SGP4","LAUNCH_DATE":"2022-05-13","ARG_OF_PERICENTER":"93.7136","APOAPSIS":"540.566"},{"MEAN_MOTION_DOT":"0.00000604","OBJECT_ID":"2022-051W","MEAN_ANOMALY":"268.2379","REV_AT_EPOCH":"5648","INCLINATION":"53.2176","ELEMENT_SET_NO":"999","TIME_SYSTEM":"UTC","SEMIMAJOR_AXIS":"6917.878","OBJECT_TYPE":"PAYLOAD","OBJECT_NAME":"STARLINK-3858","RCS_SIZE":"LARGE","TLE_LINE1":"1 52553U 22051W   23138.21345843  .00000604  00000-0  56056-4 0  9993","TLE_LINE2":"2 52553  53.2176  57.1490 0001068  91.8735 268.2379 15.08840850 56489","GP_ID":"232085568","MEAN_ELEMENT_THEORY":"SGP4","RA_OF_ASC_NODE":"57.1490","PERIOD":"95.438","EPHEMERIS_TYPE":"0","SITE":"AFWTR","ARG_OF_PERICENTER":"91.8735","APOAPSIS":"540.482","LAUNCH_DATE":"2022-05-13","MEAN_MOTION":"15.08840850","FILE":"3911221","EPOCH":"2023-05-18T05:07:22.808352","NORAD_CAT_ID":"52553","ECCENTRICITY":"0.00010680","COUNTRY_CODE":"US","DECAY_DATE":null,"PERIAPSIS":"539.004","MEAN_MOTION_DDOT":"0.0000000000000","CLASSIFICATION_TYPE":"U","BSTAR":"0.00005605600000","REF_FRAME":"TEME","CENTER_NAME":"EARTH"},{"PERIAPSIS":"538.999","DECAY_DATE":null,"CENTER_NAME":"EARTH","REF_FRAME":"TEME","BSTAR":"-0.00000028383000","MEAN_MOTION_DDOT":"0.0000000000000","CLASSIFICATION_TYPE":"U","NORAD_CAT_ID":"52554","EPOCH":"2023-05-18T18:45:26.566272","FILE":"3911388","MEAN_MOTION":"15.08845671","COUNTRY_CODE":"US","ECCENTRICITY":"0.00010540","APOAPSIS":"540.457","ARG_OF_PERICENTER":"90.3898","LAUNCH_DATE":"2022-05-13","MEAN_ELEMENT_THEORY":"SGP4","GP_ID":"232115544","TLE_LINE2":"2 52554  53.2181  59.5982 0001054  90.3898 269.7215 15.08845671 56499","TLE_LINE1":"1 52554U 22051X   23138.78155748 -.00000292  00000-0 -28383-6 0  9998","SITE":"AFWTR","EPHEMERIS_TYPE":"0","PERIOD":"95.437","RA_OF_ASC_NODE":"59.5982","OBJECT_NAME":"STARLINK-3770","OBJECT_TYPE":"PAYLOAD","SEMIMAJOR_AXIS":"6917.863","RCS_SIZE":"LARGE","TIME_SYSTEM":"UTC","ELEMENT_SET_NO":"999","INCLINATION":"53.2181","REV_AT_EPOCH":"5649","OBJECT_ID":"2022-051X","MEAN_ANOMALY":"269.7215","MEAN_MOTION_DOT":"-0.00000292"},{"OBJECT_ID":"2022-051Y","MEAN_ANOMALY":"273.9843","MEAN_MOTION_DOT":"0.00000272","REV_AT_EPOCH":"5654","TIME_SYSTEM":"UTC","ELEMENT_SET_NO":"999","INCLINATION":"53.2179","RCS_SIZE":"LARGE","OBJECT_NAME":"STARLINK-3949","OBJECT_TYPE":"PAYLOAD","SEMIMAJOR_AXIS":"6917.902","SITE":"AFWTR","EPHEMERIS_TYPE":"0","PERIOD":"95.438","RA_OF_ASC_NODE":"55.4032","MEAN_ELEMENT_THEORY":"SGP4","GP_ID":"232115795","TLE_LINE1":"1 52555U 22051Y   23138.60449869  .00000272  00000-0  35191-4 0  9999","TLE_LINE2":"2 52555  53.2179  55.4032 0000969  86.1260 273.9843 15.08832969 56544","LAUNCH_DATE":"2022-05-13","APOAPSIS":"540.437","ARG_OF_PERICENTER":"86.1260","ECCENTRICITY":"0.00009690","COUNTRY_CODE":"US","NORAD_CAT_ID":"52555","EPOCH":"2023-05-18T14:30:28.686816","FILE":"3911388","MEAN_MOTION":"15.08832969","CENTER_NAME":"EARTH","BSTAR":"0.00003519100000","REF_FRAME":"TEME","MEAN_MOTION_DDOT":"0.0000000000000","CLASSIFICATION_TYPE":"U","PERIAPSIS":"539.097","DECAY_DATE":null},{"REV_AT_EPOCH":"5658","MEAN_MOTION_DOT":"0.00021254","OBJECT_ID":"2022-051Z","MEAN_ANOMALY":"274.8568","SEMIMAJOR_AXIS":"6888.648","OBJECT_TYPE":"PAYLOAD","OBJECT_NAME":"STARLINK-3763","RCS_SIZE":"LARGE","INCLINATION":"53.2169","ELEMENT_SET_NO":"999","TIME_SYSTEM":"UTC","ARG_OF_PERICENTER":"85.2960","APOAPSIS":"513.721","LAUNCH_DATE":"2022-05-13","TLE_LINE1":"1 52556U 22051Z   23138.80740781  .00021254  00000-0  10313-2 0  9999","TLE_LINE2":"2 52556  53.2169  53.5738 0004657  85.2960 274.8568 15.18454620 56584","GP_ID":"232116546","MEAN_ELEMENT_THEORY":"SGP4","RA_OF_ASC_NODE":"53.5738","PERIOD":"94.833","EPHEMERIS_TYPE":"0","SITE":"AFWTR","DECAY_DATE":null,"PERIAPSIS":"507.304","MEAN_MOTION_DDOT":"0.0000000000000","CLASSIFICATION_TYPE":"U","REF_FRAME":"TEME","BSTAR":"0.00103130000000","CENTER_NAME":"EARTH","MEAN_MOTION":"15.18454620","FILE":"3911388","EPOCH":"2023-05-18T19:22:40.034784","NORAD_CAT_ID":"52556","COUNTRY_CODE":"US","ECCENTRICITY":"0.00046570"},{"MEAN_MOTION_DDOT":"0.0000000000000","CLASSIFICATION_TYPE":"U","BSTAR":"0.00003268000000","REF_FRAME":"TEME","CENTER_NAME":"EARTH","DECAY_DATE":null,"PERIAPSIS":"538.896","COUNTRY_CODE":"US","ECCENTRICITY":"0.00012290","MEAN_MOTION":"15.08839583","FILE":"3911221","EPOCH":"2023-05-18T03:05:29.607360","NORAD_CAT_ID":"52557","LAUNCH_DATE":"2022-05-13","ARG_OF_PERICENTER":"98.1780","APOAPSIS":"540.597","RA_OF_ASC_NODE":"57.5265","PERIOD":"95.438","EPHEMERIS_TYPE":"0","SITE":"AFWTR","TLE_LINE1":"1 52557U 22051AA  23138.12881490  .00000232  00000-0  32680-4 0  9994","TLE_LINE2":"2 52557  53.2186  57.5265 0001229  98.1780 261.9352 15.08839583 56478","GP_ID":"232086068","MEAN_ELEMENT_THEORY":"SGP4","RCS_SIZE":"LARGE","SEMIMAJOR_AXIS":"6917.882","OBJECT_TYPE":"PAYLOAD","OBJECT_NAME":"STARLINK-3943","INCLINATION":"53.2186","ELEMENT_SET_NO":"999","TIME_SYSTEM":"UTC","REV_AT_EPOCH":"5647","MEAN_MOTION_DOT":"0.00000232","OBJECT_ID":"2022-051AA","MEAN_ANOMALY":"261.9352"},{"TIME_SYSTEM":"UTC","ELEMENT_SET_NO":"999","INCLINATION":"53.2184","OBJECT_NAME":"STARLINK-3954","OBJECT_TYPE":"PAYLOAD","SEMIMAJOR_AXIS":"6917.876","RCS_SIZE":"LARGE","MEAN_ANOMALY":"263.9580","OBJECT_ID":"2022-051AB","MEAN_MOTION_DOT":"0.00000358","REV_AT_EPOCH":"5669","NORAD_CAT_ID":"52558","EPOCH":"2023-05-18T17:25:17.703840","FILE":"3911388","MEAN_MOTION":"15.08841509","ECCENTRICITY":"0.00012900","COUNTRY_CODE":"US","PERIAPSIS":"538.848","DECAY_DATE":null,"CENTER_NAME":"EARTH","REF_FRAME":"TEME","BSTAR":"0.00004057000000","CLASSIFICATION_TYPE":"U","MEAN_MOTION_DDOT":"0.0000000000000","MEAN_ELEMENT_THEORY":"SGP4","GP_ID":"232115044","TLE_LINE1":"1 52558U 22051AB  23138.72589935  .00000358  00000-0  40570-4 0  9996","TLE_LINE2":"2 52558  53.2184  44.8498 0001290  96.1559 263.9580 15.08841509 56694","SITE":"AFWTR","EPHEMERIS_TYPE":"0","PERIOD":"95.437","RA_OF_ASC_NODE":"44.8498","APOAPSIS":"540.633","ARG_OF_PERICENTER":"96.1559","LAUNCH_DATE":"2022-05-13"},{"REV_AT_EPOCH":"5669","MEAN_ANOMALY":"283.1358","OBJECT_ID":"2022-051AC","MEAN_MOTION_DOT":"0.00000967","OBJECT_NAME":"STARLINK-3953","SEMIMAJOR_AXIS":"6917.874","OBJECT_TYPE":"PAYLOAD","RCS_SIZE":"LARGE","TIME_SYSTEM":"UTC","INCLINATION":"53.2170","ELEMENT_SET_NO":"999","ARG_OF_PERICENTER":"76.9754","APOAPSIS":"540.484","LAUNCH_DATE":"2022-05-13","GP_ID":"232116296","MEAN_ELEMENT_THEORY":"SGP4","TLE_LINE2":"2 52559  53.2170  44.9818 0001076  76.9754 283.1358 15.08842000 56696","TLE_LINE1":"1 52559U 22051AC  23138.73696103  .00000967  00000-0  78833-4 0  9993","EPHEMERIS_TYPE":"0","SITE":"AFWTR","RA_OF_ASC_NODE":"44.9818","PERIOD":"95.437","DECAY_DATE":null,"PERIAPSIS":"538.995","BSTAR":"0.00007883300000","REF_FRAME":"TEME","CENTER_NAME":"EARTH","MEAN_MOTION_DDOT":"0.0000000000000","CLASSIFICATION_TYPE":"U","EPOCH":"2023-05-18T17:41:13.432992","NORAD_CAT_ID":"52559","MEAN_MOTION":"15.08842000","FILE":"3911388","ECCENTRICITY":"0.00010760","COUNTRY_CODE":"US"},{"DECAY_DATE":null,"PERIAPSIS":"539.002","BSTAR":"0.00008655200000","REF_FRAME":"TEME","CENTER_NAME":"EARTH","CLASSIFICATION_TYPE":"U","MEAN_MOTION_DDOT":"0.0000000000000","EPOCH":"2023-05-18T20:30:46.186272","NORAD_CAT_ID":"52560","MEAN_MOTION":"15.08840492","FILE":"3911388","ECCENTRICITY":"0.00010730","COUNTRY_CODE":"US","ARG_OF_PERICENTER":"95.1803","APOAPSIS":"540.486","LAUNCH_DATE":"2022-05-13","GP_ID":"232116046","MEAN_ELEMENT_THEORY":"SGP4","TLE_LINE1":"1 52560U 22051AD  23138.85470123  .00001090  00000-0  86552-4 0  9995","TLE_LINE2":"2 52560  53.2173  44.2741 0001073  95.1803 264.9312 15.08840492 56717","EPHEMERIS_TYPE":"0","SITE":"AFWTR","RA_OF_ASC_NODE":"44.2741","PERIOD":"95.438","OBJECT_NAME":"STARLINK-3956","SEMIMAJOR_AXIS":"6917.879","OBJECT_TYPE":"PAYLOAD","RCS_SIZE":"LARGE","TIME_SYSTEM":"UTC","INCLINATION":"53.2173","ELEMENT_SET_NO":"999","REV_AT_EPOCH":"5671","MEAN_ANOMALY":"264.9312","OBJECT_ID":"2022-051AD","MEAN_MOTION_DOT":"0.00001090"},{"LAUNCH_DATE":"2022-05-13","APOAPSIS":"540.939","ARG_OF_PERICENTER":"119.9621","SITE":"AFWTR","EPHEMERIS_TYPE":"0","PERIOD":"95.438","RA_OF_ASC_NODE":"62.9183","MEAN_ELEMENT_THEORY":"SGP4","GP_ID":"232085569","TLE_LINE2":"2 52561  53.2184  62.9183 0001717 119.9621 240.1542 15.08838226 56381","TLE_LINE1":"1 52561U 22051AE  23138.04187852  .00000954  00000-0  78036-4 0  9997","CENTER_NAME":"EARTH","BSTAR":"0.00007803600000","REF_FRAME":"TEME","MEAN_MOTION_DDOT":"0.0000000000000","CLASSIFICATION_TYPE":"U","PERIAPSIS":"538.563","DECAY_DATE":null,"COUNTRY_CODE":"US","ECCENTRICITY":"0.00017170","NORAD_CAT_ID":"52561","EPOCH":"2023-05-18T01:00:18.304128","FILE":"3911221","MEAN_MOTION":"15.08838226","REV_AT_EPOCH":"5638","OBJECT_ID":"2022-051AE","MEAN_ANOMALY":"240.1542","MEAN_MOTION_DOT":"0.00000954","RCS_SIZE":"LARGE","OBJECT_NAME":"STARLINK-3955","OBJECT_TYPE":"PAYLOAD","SEMIMAJOR_AXIS":"6917.886","TIME_SYSTEM":"UTC","ELEMENT_SET_NO":"999","INCLINATION":"53.2184"}];
